NORAD_CAT_ID,OBJECT_NAME,OBJECT_TYPE,EPOCH,MEAN_MOTION,ECCENTRICITY,INCLINATION,RA_OF_ASC_NODE,ARG_OF_PERICENTER,MEAN_ANOMALY,BSTAR,MEAN_MOTION_DOT,MEAN_MOTION_DDOT,TLE_LINE0,TLE_LINE1,TLE_LINE2,SEMIMAJOR_AXIS,PERIOD,APOGEE,PERIGEE,DECAYED
53711.0,STARLINK-4627,PAYLOAD,2022-11-30 14:00:01,15.07186814,0.0001371,53.2155,213.3811,92.0858,297.5683,0.0034232,0.00052184,0.0,0 STARLINK-4627,1 53711U 22107M   22334.58335648  .00052184  00000-0  34232-2 0  9991,2 53711  53.2155 213.3811 0001371  92.0858 297.5683 15.07186814 13626,6922.938,95.542,545.752,543.854,0.0
53711.0,STARLINK-4627,PAYLOAD,2022-11-30 22:00:00,15.07223496,0.0001434,53.2168,211.8927,88.2269,310.9944,-0.00078893,-0.00012278,0.0,0 STARLINK-4627,1 53711U 22107M   22334.91667824 -.00012278  00000-0 -78893-3 0  9996,2 53711  53.2168 211.8927 0001434  88.2269 310.9944 15.07223496  1304,6922.826,95.54,545.684,543.698,0.0
53711.0,STARLINK-4627,PAYLOAD,2022-12-01 06:00:00,15.07241724,0.0001431999999999,53.2161,210.3973,80.315,328.5347,-0.0037004,-0.00056224,0.0,0 STARLINK-4627,1 53711U 22107M   22335.25001157 -.00056224  00000-0 -37004-2 0  9992,2 53711  53.2161 210.3973 0001432  80.3150 328.5347 15.07241724 13727,6922.77,95.539,545.626,543.644,0.0
53711.0,STARLINK-4627,PAYLOAD,2022-12-01 14:00:01,15.07186012,0.0001546,53.216,208.9025,90.921,327.5933,0.0026472,0.00040221,0.0,0 STARLINK-4627,1 53711U 22107M   22335.58334491  .00040221  00000-0  26472-2 0  9993,2 53711  53.2160 208.9025 0001546  90.9210 327.5933 15.07186012  1306,6922.941,95.542,545.876,543.735,0.0
53711.0,STARLINK-4627,PAYLOAD,2022-12-01 22:00:00,15.07210947,0.0001609,53.2161,207.4117,83.445,344.691,-0.00077751,-0.00012101,0.0,0 STARLINK-4627,1 53711U 22107M   22335.91667824 -.00012101  00000-0 -77751-3 0  9994,2 53711  53.2161 207.4117 0001609  83.4450 344.6910 15.07210947 13826,6922.864000000001,95.541,545.8430000000002,543.615,0.0
53711.0,STARLINK-4627,PAYLOAD,2022-12-02 14:00:01,15.071756,0.000149,53.2162,204.4247,89.5575,357.8531,0.002703,0.00041068,0.0,0 STARLINK-4627,1 53711U 22107M   22336.58334491  .00041068  00000-0  27030-2 0  9995,2 53711  53.2162 204.4247 0001490  89.5575 357.8531 15.07175600  1302,6922.972,95.543,545.869,543.806,0.0
53711.0,STARLINK-4627,PAYLOAD,2022-12-02 22:00:00,15.07199961,0.000156,53.2163,202.9339,81.4891,15.5339,-0.00072504,-0.00011301,0.0,0 STARLINK-4627,1 53711U 22107M   22336.91667824 -.00011301  00000-0 -72504-3 0  9997,2 53711  53.2163 202.9339 0001560  81.4891  15.5339 15.07199961  1308,6922.898,95.541,545.8430000000002,543.683,0.0
53711.0,STARLINK-4627,PAYLOAD,2022-12-03 08:00:01,15.07215417,0.0001488,53.2165,201.0673,83.473,115.5756,-0.0014519,-0.00022321,0.0,0 STARLINK-4627,1 53711U 22107M   22337.33334491 -.00022321  00000-0 -14519-2 0  9990,2 53711  53.2165 201.0673 0001488  83.4730 115.5756 15.07215417 14037,6922.851,95.54,545.746,543.685,0.0
53711.0,STARLINK-4627,PAYLOAD,2022-12-03 14:00:01,15.07196704,0.0001546,53.2166,199.947,88.2383,28.0375,0.0022806,0.00034594,0.0,0 STARLINK-4627,1 53711U 22107M   22337.58334491  .00034594  00000-0  22806-2 0  9998,2 53711  53.2166 199.9470 0001546  88.2383  28.0375 15.07196704  1308,6922.908,95.542,545.8430000000002,543.703,0.0
53711.0,STARLINK-4627,PAYLOAD,2022-12-03 22:00:00,15.07216717,0.0001589,53.2166,198.4563,80.1176,45.7941,-0.00069914,-0.00010913,0.0,0 STARLINK-4627,1 53711U 22107M   22337.91667824 -.00010913  00000-0 -69914-3 0  9997,2 53711  53.2166 198.4563 0001589  80.1176  45.7941 15.07216717 14129,6922.847,95.54,545.812,543.612,0.0
53711.0,STARLINK-4627,PAYLOAD,2022-12-04 14:00:01,15.071897,0.000147,53.2169,195.4694,88.0838,57.1014,0.0018575,0.00028092,0.0,0 STARLINK-4627,1 53711U 22107M   22338.58334491  .00028092  00000-0  18575-2 0  9993,2 53711  53.2169 195.4694 0001470  88.0838  57.1014 15.07189700  1300,6922.929,95.542,545.812,543.7769999999998,0.0
53711.0,STARLINK-4627,PAYLOAD,2022-12-04 22:00:00,15.07201175,0.0001511,53.2167,193.9786,79.1117,75.6996,7.7559e-05,8.97e-06,0.0,0 STARLINK-4627,1 53711U 22107M   22338.91667824  .00000897  00000-0  77559-4 0  9991,2 53711  53.2167 193.9786 0001511  79.1117  75.6996 15.07201175  1305,6922.894,95.541,545.805,543.7130000000002,0.0
53711.0,STARLINK-4627,PAYLOAD,2022-12-05 06:00:00,15.07226465,0.0001463,53.2165,192.4854,81.0289,83.4066,-0.0018287,-0.00028027,0.0,0 STARLINK-4627,1 53711U 22107M   22339.25001157 -.00028027  00000-0 -18287-2 0  9998,2 53711  53.2165 192.4854 0001463  81.0289  83.4066 15.07226465 14321,6922.816999999999,95.54,545.695,543.669,0.0
53711.0,STARLINK-4627,PAYLOAD,2022-12-05 14:00:01,15.07219841,0.0001543,53.2167,190.9918,89.3911,84.7473,-0.0015531,-0.00023855,0.0,0 STARLINK-4627,1 53711U 22107M   22339.58335648 -.00023855  00000-0 -15531-2 0  9992,2 53711  53.2167 190.9918 0001543  89.3911  84.7473 15.07219841  1309,6922.837,95.54,545.77,543.634,0.0
53711.0,STARLINK-4627,PAYLOAD,2022-12-05 21:11:19,15.07205771,0.0001503,53.2182,189.6513,86.2046,273.9118,-9.5923e-06,-4.29e-06,0.0,0 STARLINK-4627,1 53711U 22107M   22339.88286026 -.00000429  00000-0 -95923-5 0  9998,2 53711  53.2182 189.6513 0001503  86.2046 273.9118 15.07205771 14863,6922.88,95.541,545.786,543.705,0.0
53711.0,STARLINK-4627,PAYLOAD,2022-12-06 00:22:17,15.07204805,0.0001486999999999,53.2186,189.0579,86.2643,273.8518,-2.5779e-05,-6.76e-06,0.0,0 STARLINK-4627,1 53711U 22107M   22340.01548557 -.00000676  00000-0 -25779-4 0  9990,2 53711  53.2186 189.0579 0001487  86.2643 273.8518 15.07204805 14441,6922.8830000000025,95.541,545.7769999999998,543.719,0.0
53711.0,STARLINK-4627,PAYLOAD,2022-12-06 06:44:15,15.07198798,0.000147,53.2177,187.87,85.4224,274.6936,-7.6476e-05,-1.447e-05,0.0,0 STARLINK-4627,1 53711U 22107M   22340.28073875 -.00001447  00000-0 -76476-4 0  9992,2 53711  53.2177 187.8700 0001470  85.4224 274.6936 15.07198798 14920,6922.901,95.541,545.784,543.749,0.0
53711.0,STARLINK-4627,PAYLOAD,2022-12-06 14:41:42,15.07197362,0.000145,53.2175,186.385,83.3448,276.7708,-3.3595e-06,-3.34e-06,0.0,0 STARLINK-4627,1 53711U 22107M   22340.61229760 -.00000334  00000-0 -33595-5 0  9995,2 53711  53.2175 186.3850 0001450  83.3448 276.7708 15.07197362 14972,6922.906,95.542,545.775,543.7669999999998,0.0
53711.0,STARLINK-4627,PAYLOAD,2022-12-07 00:14:38,15.07188109,0.0001456,53.2176,184.6036,87.1998,272.916,0.00019756,2.724e-05,0.0,0 STARLINK-4627,1 53711U 22107M   22341.01016890  .00002724  00000-0  19756-3 0  9992,2 53711  53.2176 184.6036 0001456  87.1998 272.9160 15.07188109 14595,6922.934,95.542,545.807,543.7909999999998,0.0
53711.0,STARLINK-4627,PAYLOAD,2022-12-07 12:58:34,15.07192486,0.0001571999999999,53.2174,182.2283,88.3727,271.7444,-9.1554e-05,-1.676e-05,0.0,0 STARLINK-4627,1 53711U 22107M   22341.54067409 -.00001676  00000-0 -91554-4 0  9996,2 53711  53.2174 182.2283 0001572  88.3727 271.7444 15.07192486 15117,6922.920999999999,95.542,545.874,543.697,0.0
53711.0,STARLINK-4627,PAYLOAD,2022-12-08 06:28:57,15.07189643,0.0001567,53.2179,178.9621,85.2423,274.8747,2.1643e-06,-2.5e-06,0.0,0 STARLINK-4627,1 53711U 22107M   22342.27010979 -.00000250  00000-0  21643-5 0  9996,2 53711  53.2179 178.9621 0001567  85.2423 274.8747 15.07189643 15226,6922.929,95.542,545.879,543.71,0.0
53711.0,STARLINK-4627,PAYLOAD,2022-12-08 19:12:52,15.07193553,0.0001609,53.2182,176.5863,85.0772,275.0403,-1.4835e-05,-5.09e-06,0.0,0 STARLINK-4627,1 53711U 22107M   22342.80060747 -.00000509  00000-0 -14835-4 0  9995,2 53711  53.2182 176.5863 0001609  85.0772 275.0403 15.07193553 14860,6922.917,95.542,545.896,543.669,0.0
53711.0,STARLINK-4627,PAYLOAD,2022-12-09 06:21:17,15.07198984,0.0001491,53.2176,174.5078,85.0148,275.1014,1.7662e-05,-1.5e-07,0.0,0 STARLINK-4627,1 53711U 22107M   22343.26478825 -.00000015  00000-0  17662-4 0  9998,2 53711  53.2176 174.5078 0001491  85.0148 275.1014 15.07198984 15374,6922.901,95.541,545.798,543.734,0.0
53711.0,STARLINK-4627,PAYLOAD,2022-12-10 12:35:32,15.07235928,7.62e-05,53.2165,168.8714,302.4986,57.5932,0.0002979,4.258e-05,0.0,0 STARLINK-4627,1 53711U 22107M   22344.52468080  .00004258  00000-0  29790-3 0  9996,2 53711  53.2165 168.8714 0000762 302.4986  57.5932 15.07235928 15563,6922.788000000001,95.539,545.18,544.125,0.0
53711.0,STARLINK-4627,PAYLOAD,2022-12-10 18:57:27,15.07295874,0.0001486,53.2173,167.6844,37.5063,322.6032,0.00027361,3.894e-05,0.0,0 STARLINK-4627,1 53711U 22107M   22344.78990418  .00003894  00000-0  27361-3 0  9996,2 53711  53.2173 167.6844 0001486  37.5063 322.6032 15.07295874 15168,6922.604,95.535,545.498,543.44,0.0
53711.0,STARLINK-4627,PAYLOAD,2022-12-11 02:54:59,15.07215664,8.97e-05,53.2175,166.1994,91.0807,269.0287,-0.0003484,-5.584e-05,0.0,0 STARLINK-4627,1 53711U 22107M   22345.12152240 -.00005584  00000-0 -34840-3 0  9998,2 53711  53.2175 166.1994 0000897  91.0807 269.0287 15.07215664 15217,6922.85,95.54,545.336,544.094,0.0
53711.0,STARLINK-4627,PAYLOAD,2022-12-11 18:49:52,15.07201781,0.0001441999999999,53.2187,163.2278,100.4914,259.624,-7.245899999999999e-05,-1.386e-05,0.0,0 STARLINK-4627,1 53711U 22107M   22345.78464109 -.00001386  00000-0 -72459-4 0  9995,2 53711  53.2187 163.2278 0001442 100.4914 259.6240 15.07201781 15752,6922.892,95.541,545.756,543.759,0.0
53711.0,STARLINK-4627,PAYLOAD,2022-12-12 12:20:15,15.07205083,0.0001322,53.2186,159.9594,81.8513,278.2628,-7.8594e-05,-1.479e-05,0.0,0 STARLINK-4627,1 53711U 22107M   22346.51406980 -.00001479  00000-0 -78594-4 0  9999,2 53711  53.2186 159.9594 0001322  81.8513 278.2628 15.07205083 15428,6922.882,95.541,545.6619999999998,543.832,0.0
53711.0,STARLINK-4627,PAYLOAD,2022-12-13 04:15:08,15.07211659,0.0001329,53.2182,156.9888,86.8169,273.2974,-1.1183e-05,-4.54e-06,0.0,0 STARLINK-4627,1 53711U 22107M   22347.17718009 -.00000454  00000-0 -11183-4 0  9993,2 53711  53.2182 156.9888 0001329  86.8169 273.2974 15.07211659 15522,6922.861999999999,95.541,545.6469999999998,543.807,0.0
